NORAD_CAT_ID,OBJECT_NAME,OBJECT_TYPE,EPOCH,MEAN_MOTION,ECCENTRICITY,INCLINATION,RA_OF_ASC_NODE,ARG_OF_PERICENTER,MEAN_ANOMALY,BSTAR,MEAN_MOTION_DOT,MEAN_MOTION_DDOT,TLE_LINE0,TLE_LINE1,TLE_LINE2,SEMIMAJOR_AXIS,PERIOD,APOGEE,PERIGEE,DECAYED
53273.0,STARLINK-4051,PAYLOAD,2022-12-22 04:28:51,15.08837157,0.0002319,53.2178,52.19300000000001,31.5048,328.6083,-3.5875e-05,-8.59e-06,0.0,0 STARLINK-4051,1 53273U 22086AH  22356.18670857 -.00000859  00000-0 -35875-4 0  9994,2 53273  53.2178  52.1930 0002319  31.5048 328.6083 15.08837157 23868,6917.889,95.438,541.3580000000002,538.15,0.0
53273.0,STARLINK-4051,PAYLOAD,2022-12-22 10:50:23,15.08844182,0.0002353,53.2177,51.0039,32.2154,327.8981,9.1384e-05,1.167e-05,0.0,0 STARLINK-4051,1 53273U 22086AH  22356.45166567  .00001167  00000-0  91384-4 0  9990,2 53273  53.2177  51.0039 0002353  32.2154 327.8981 15.08844182 24077,6917.868,95.437,541.36,538.105,0.0
53273.0,STARLINK-4051,PAYLOAD,2022-12-22 15:36:33,15.08842165,0.0002345,53.2171,50.1121,31.1263,328.9868,7.3895e-05,8.88e-06,0.0,0 STARLINK-4051,1 53273U 22086AH  22356.65038707  .00000888  00000-0  73895-4 0  9992,2 53273  53.2171  50.1121 0002345  31.1263 328.9868 15.08842165 24102,6917.874,95.437,541.361,538.117,0.0
53273.0,STARLINK-4051,PAYLOAD,2022-12-23 12:16:35,15.08831164,0.0002373,53.2177,46.2463,29.4591,330.6535,0.0002237,3.273e-05,0.0,0 STARLINK-4051,1 53273U 22086AH  22357.51151826  .00003273  00000-0  22370-3 0  9998,2 53273  53.2177  46.2463 0002373  29.4591 330.6535 15.08831164 24061,6917.906999999997,95.438,541.414,538.131,0.0
53273.0,STARLINK-4051,PAYLOAD,2022-12-23 15:27:21,15.08834623,0.0002358,53.2176,45.6514,29.5547,330.5578,0.000257,3.804e-05,0.0,0 STARLINK-4051,1 53273U 22086AH  22357.64399730  .00003804  00000-0  25700-3 0  9990,2 53273  53.2176  45.6514 0002358  29.5547 330.5578 15.08834623 24255,6917.897,95.438,541.393,538.131,0.0
53273.0,STARLINK-4051,PAYLOAD,2022-12-24 12:07:21,15.08847763,0.0002333,53.2174,41.7854,28.3758,331.7361,0.00016154,2.284e-05,0.0,0 STARLINK-4051,1 53273U 22086AH  22358.50510853  .00002284  00000-0  16154-3 0  9991,2 53273  53.2174  41.7854 0002333  28.3758 331.7361 15.08847763 24219,6917.857,95.437,541.336,538.1080000000002,0.0
53273.0,STARLINK-4051,PAYLOAD,2022-12-24 15:18:08,15.08836455,0.0002506,53.2177,41.191,28.429,331.6839,-4.2603e-05,-9.66e-06,0.0,0 STARLINK-4051,1 53273U 22086AH  22358.63759522 -.00000966  00000-0 -42603-4 0  9999,2 53273  53.2177  41.1910 0002506  28.4290 331.6839 15.08836455 24230,6917.891,95.438,541.49,538.023,0.0
53273.0,STARLINK-4051,PAYLOAD,2022-12-25 10:22:45,15.08836085,0.0002409,53.2172,37.622,28.4717,331.6406,-3.0672e-05,-7.76e-06,0.0,0 STARLINK-4051,1 53273U 22086AH  22359.43247342 -.00000776  00000-0 -30672-4 0  9992,2 53273  53.2172  37.6220 0002409  28.4717 331.6406 15.08836085 24526,6917.892,95.438,541.424,538.091,0.0
53273.0,STARLINK-4051,PAYLOAD,2022-12-25 15:08:54,15.08838788,0.0002432,53.2169,36.7304,34.0575,326.0573,-1.3682e-05,-5.06e-06,0.0,0 STARLINK-4051,1 53273U 22086AH  22359.63119129 -.00000506  00000-0 -13682-4 0  9998,2 53273  53.2169  36.7304 0002432  34.0575 326.0573 15.08838788 24385,6917.884,95.438,541.432,538.067,0.0
53273.0,STARLINK-4051,PAYLOAD,2022-12-25 19:55:04,15.08838923,0.0002383,53.2167,35.8379,32.1693,327.9444,0.00011131,1.484e-05,0.0,0 STARLINK-4051,1 53273U 22086AH  22359.82991177  .00001484  00000-0  11131-3 0  9990,2 53273  53.2167  35.8379 0002383  32.1693 327.9444 15.08838923 24580,6917.884,95.438,541.3969999999998,538.1,0.0
53273.0,STARLINK-4051,PAYLOAD,2022-12-26 11:48:56,15.08836146,0.0002449,53.217,32.8645,31.1103,329.0033,9.4208e-05,1.211e-05,0.0,0 STARLINK-4051,1 53273U 22086AH  22360.49231734  .00001211  00000-0  94208-4 0  9996,2 53273  53.2170  32.8645 0002449  31.1103 329.0033 15.08836146 24688,6917.892,95.438,541.451,538.063,0.0
53273.0,STARLINK-4051,PAYLOAD,2022-12-26 19:45:51,15.08846084,0.0002486,53.2171,31.3776,31.8931,328.2211,0.00032131,4.83e-05,0.0,0 STARLINK-4051,1 53273U 22086AH  22360.82351532  .00004830  00000-0  32131-3 0  9998,2 53273  53.2171  31.3776 0002486  31.8931 328.2211 15.08846084 24732,6917.861999999999,95.437,541.447,538.007,0.0
53273.0,STARLINK-4051,PAYLOAD,2022-12-27 02:07:24,15.08854266,0.0002391,53.2171,30.188,29.9951,330.1177,0.00048729,7.479e-05,0.0,0 STARLINK-4051,1 53273U 22086AH  22361.08847227  .00007479  00000-0  48729-3 0  9990,2 53273  53.2171  30.1880 0002391  29.9951 330.1177 15.08854266 24600,6917.837,95.437,541.356,538.048,0.0
53273.0,STARLINK-4051,PAYLOAD,2022-12-27 13:15:05,15.08861667,0.0002515,53.2171,28.106,31.5824,328.5319,0.00061705,9.552e-05,0.0,0 STARLINK-4051,1 53273U 22086AH  22361.55214833  .00009552  00000-0  61705-3 0  9996,2 53273  53.2171  28.1060 0002515  31.5824 328.5319 15.08861667 24841,6917.814,95.436,541.419,537.939,0.0
53273.0,STARLINK-4051,PAYLOAD,2022-12-28 01:58:10,15.08864658,0.0003035,53.2174,25.732,22.2093,337.903,0.00052284,8.048e-05,0.0,0 STARLINK-4051,1 53273U 22086AH  22362.08206201  .00008048  00000-0  52284-3 0  9996,2 53273  53.2174  25.7320 0003035  22.2093 337.9030 15.08864658 24756,6917.805,95.436,541.77,537.57,0.0
53273.0,STARLINK-4051,PAYLOAD,2022-12-29 01:48:57,15.08828601,0.0002983,53.218,21.2718,24.9673,335.1463,-0.00039038,-6.495e-05,0.0,0 STARLINK-4051,1 53273U 22086AH  22363.07566789 -.00006495  00000-0 -39038-3 0  9994,2 53273  53.2180  21.2718 0002983  24.9673 335.1463 15.08828601 24904,6917.915,95.438,541.844,537.717,0.0
53273.0,STARLINK-4051,PAYLOAD,2022-12-29 11:21:16,15.08828739,0.000249,53.2186,19.4839,27.2641,332.8481,-0.00021708,-3.741e-05,0.0,0 STARLINK-4051,1 53273U 22086AH  22363.47311315 -.00003741  00000-0 -21708-3 0  9997,2 53273  53.2186  19.4839 0002490  27.2641 332.8481 15.08828739 25139,6917.915,95.438,541.502,538.057,0.0
53273.0,STARLINK-4051,PAYLOAD,2022-12-30 04:50:32,15.08827227,0.0002722,53.2184,16.2122,27.0093,333.1041,-1.1639000000000003e-05,-4.74e-06,0.0,0 STARLINK-4051,1 53273U 22086AH  22364.20176451 -.00000474  00000-0 -11639-4 0  9992,2 53273  53.2184  16.2122 0002722  27.0093 333.1041 15.08827227 25074,6917.919,95.438,541.6669999999998,537.901,0.0
53273.0,STARLINK-4051,PAYLOAD,2022-12-30 11:12:05,15.08836529,0.0002715,53.2174,15.0235,31.7977,328.3178,0.00035739,5.404e-05,0.0,0 STARLINK-4051,1 53273U 22086AH  22364.46672460  .00005404  00000-0  35739-3 0  9993,2 53273  53.2174  15.0235 0002715  31.7977 328.3178 15.08836529 25285,6917.891,95.438,541.634,537.878,0.0
53273.0,STARLINK-4051,PAYLOAD,2022-12-30 17:33:37,15.08841347,0.0002569,53.2173,13.8343,33.3404,326.7749,0.00047549,7.288e-05,0.0,0 STARLINK-4051,1 53273U 22086AH  22364.73168473  .00007288  00000-0  47549-3 0  9991,2 53273  53.2173  13.8343 0002569  33.3404 326.7749 15.08841347 25156,6917.876,95.437,541.518,537.964,0.0
53273.0,STARLINK-4051,PAYLOAD,2022-12-31 11:02:51,15.08857978,0.0002711,53.2175,10.5624,31.4419,328.6735,0.00061683,9.547e-05,0.0,0 STARLINK-4051,1 53273U 22086AH  22365.46031611  .00009547  00000-0  61683-3 0  9990,2 53273  53.2175  10.5624 0002711  31.4419 328.6735 15.08857978 25432,6917.825,95.436,541.566,537.815,0.0
53273.0,STARLINK-4051,PAYLOAD,2022-12-31 17:24:23,15.08864999,0.0002734,53.2176,9.3731,35.0416,325.0756,0.00034185,5.16e-05,0.0,0 STARLINK-4051,1 53273U 22086AH  22365.72527029  .00005160  00000-0  34185-3 0  9996,2 53273  53.2176   9.3731 0002734  35.0416 325.0756 15.08864999 25301,6917.804,95.436,541.56,537.778,0.0
53273.0,STARLINK-4051,PAYLOAD,2023-01-01 04:32:05,15.08836461,0.0002846,53.2166,7.2916,18.493,341.6165,-0.00053834,-8.846e-05,0.0,0 STARLINK-4051,1 53273U 22086AH  23001.18895228 -.00008846  00000-0 -53834-3 0  9991,2 53273  53.2166   7.2916 0002846  18.4930 341.6165 15.08836461 25370,6917.891,95.438,541.725,537.7869999999998,0.0
53273.0,STARLINK-4051,PAYLOAD,2023-01-01 10:53:38,15.08825606,0.0002558,53.2176,6.1022,30.7949,329.3193,-0.00072566,-0.00011815,0.0,0 STARLINK-4051,1 53273U 22086AH  23001.45391559 -.00011815  00000-0 -72566-3 0  9992,2 53273  53.2176   6.1022 0002558  30.7949 329.3193 15.08825606 25580,6917.924,95.438,541.559,538.02,0.0
53273.0,STARLINK-4051,PAYLOAD,2023-01-02 12:19:49,15.08839201,0.0002511,53.2172,1.3445,28.6617,331.4513,0.00068099,0.00010566,0.0,0 STARLINK-4051,1 53273U 22086AH  23002.51376499  .00010566  00000-0  68099-3 0  9992,2 53273  53.2172   1.3445 0002511  28.6617 331.4513 15.08839201 25574,6917.8830000000025,95.438,541.485,538.011,0.0
53273.0,STARLINK-4051,PAYLOAD,2023-01-02 17:05:58,15.08841597,0.0002569,53.2167,0.4529999999999999,30.1986,329.9154,0.00089801,0.00014034,0.0,0 STARLINK-4051,1 53273U 22086AH  23002.71248692  .00014034  00000-0  89801-3 0  9995,2 53273  53.2167   0.4530 0002569  30.1986 329.9154 15.08841597 25779,6917.876,95.437,541.518,537.9630000000002,0.0
53273.0,STARLINK-4051,PAYLOAD,2023-01-03 05:49:04,15.08824396,0.0002505999999999,53.2169,358.0744,36.4073,323.7089,0.00015427,2.167e-05,0.0,0 STARLINK-4051,1 53273U 22086AH  23003.24241628  .00002167  00000-0  15427-3 0  9993,2 53273  53.2169 358.0744 0002506  36.4073 323.7089 15.08824396 25684,6917.928000000001,95.439,541.5269999999998,538.059,0.0
53273.0,STARLINK-4051,PAYLOAD,2023-01-03 08:59:51,15.08829786,0.0002756,53.217,357.4789,41.7716,318.3486,0.00045441,6.949e-05,0.0,0 STARLINK-4051,1 53273U 22086AH  23003.37489817  .00006949  00000-0  45441-3 0  9992,2 53273  53.2170 357.4789 0002756  41.7716 318.3486 15.08829786 25878,6917.9119999999975,95.438,541.683,537.87,0.0
53273.0,STARLINK-4051,PAYLOAD,2023-01-03 16:56:46,15.0884656,0.0002552999999999,53.217,355.9931,31.1642,328.9501,0.00099776,0.0001563,0.0,0 STARLINK-4051,1 53273U 22086AH  23003.70609540  .00015630  00000-0  99776-3 0  9993,2 53273  53.2170 355.9931 0002553  31.1642 328.9501 15.08846560 25757,6917.86,95.437,541.491,537.9590000000002,0.0
